AMC-3                   
1 24936U 97050A   26115.83797920 -.00000271  00000+0  00000+0 0  9994
2 24936   8.0204  64.6743 0003063 318.6000  60.2457  1.00271597 51912
NSS-11                  
1 26554U 00059A   26115.88711941  .00000013  00000+0  00000+0 0  9992
2 26554   1.9934  81.9698 0002822 312.0820 315.2026  1.00272347 40763
AMC-6                   
1 26580U 00067A   26115.68299315  .00000074  00000+0  00000+0 0  9991
2 26580   0.0737  68.5061 0003887 342.5633 273.4884  1.00273710 93366
AMC-11                  
1 28252U 04017A   26112.56614848  .00000077  00000+0  00000+0 0  9997
2 28252   0.1665  82.5408 0005045 326.8232 237.0640  0.99197073 80304
AMC-15                  
1 28446U 04041A   26115.62544729 -.00000103  00000+0  00000+0 0  9990
2 28446   0.0492  54.7280 0002580 337.2203 301.7915  1.00277034 78771
NSS-10                  
1 28526U 05003A   26114.77532073 -.00000262  00000+0  00000+0 0  9998
2 28526   6.3158  71.0753 0003015 288.4515  94.9373  1.00271973 52623
ASTRA 1KR               
1 29055U 06012A   26115.94697694  .00000106  00000+0  00000+0 0  9994
2 29055   0.3402  82.5428 0003439 309.8427 181.4719  1.00273242 45172
ASTRA 1L                
1 31306U 07016A   26115.91875286 -.00000197  00000+0  00000+0 0  9994
2 31306   1.1884  81.9103 0004663 328.0663 110.1922  1.00271542 44462
ASTRA 4A                
1 32299U 07057A   26115.92455955  .00000020  00000+0  00000+0 0  9993
2 32299   0.0183 337.9213 0002726  68.7552 144.9113  1.00274753 51128
ASTRA 1M                
1 33436U 08057A   26115.94697694  .00000108  00000+0  00000+0 0  9995
2 33436   0.1629  79.3319 0003766   1.6780 133.2585  1.00274035 45216
NSS-9                   
1 33749U 09008A   26115.81726578  .00000059  00000+0  00000+0 0  9994
2 33749   1.1281  83.0801 0002160 293.4689 314.5546  1.00271385 62992
SES-7 (PROTOSTAR 2)     
1 34941U 09027A   26115.80244571 -.00000358  00000+0  00000+0 0  9990
2 34941   0.0951  79.1480 0001780 244.8253 286.9758  1.00270853 62101
NSS-12                  
1 36032U 09058A   26115.97623211  .00000058  00000+0  00000+0 0  9993
2 36032   0.0613  61.9212 0005045 309.9464 250.5525  1.00271946 60398
SES-1                   
1 36516U 10016A   26115.41862355 -.00000128  00000+0  00000+0 0  9998
2 36516   0.0263 287.7755 0002603 107.3666 227.9903  1.00270798 58509
ASTRA 3B                
1 36581U 10021A   26115.96393323  .00000125  00000+0  00000+0 0  9996
2 36581   1.3350  84.1496 0003898 319.4213 180.9447  1.00268791 58347
SES-3                   
1 37748U 11035A   26115.90323947 -.00000114  00000+0  00000+0 0  9996
2 37748   1.1931  83.5906 0003061 311.7839  40.7085  1.00271575 54066
ASTRA 1N                
1 37775U 11041A   26115.94697694  .00000106  00000+0  00000+0 0  9990
2 37775   0.0971  49.3156 0005462   9.4290 155.3288  1.00270293 44001
