[{"OBJECT_NAME":"AMC-3","OBJECT_ID":"1997-050A","EPOCH":"2026-04-25T20:06:41.402880","MEAN_MOTION":1.00271597,"ECCENTRICITY":0.00030637,"INCLINATION":8.0204,"RA_OF_ASC_NODE":64.6743,"ARG_OF_PERICENTER":318.6,"MEAN_ANOMALY":60.2457,"EPHEMERIS_TYPE":0,"CLASSIFICATION_TYPE":"U","NORAD_CAT_ID":24936,"ELEMENT_SET_NO":999,"REV_AT_EPOCH":5191,"BSTAR":0,"MEAN_MOTION_DOT":-2.71e-6,"MEAN_MOTION_DDOT":0},{"OBJECT_NAME":"NSS-11","OBJECT_ID":"2000-059A","EPOCH":"2026-04-25T21:17:27.117024","MEAN_MOTION":1.00272347,"ECCENTRICITY":0.00028226,"INCLINATION":1.9934,"RA_OF_ASC_NODE":81.9698,"ARG_OF_PERICENTER":312.082,"MEAN_ANOMALY":315.2026,"EPHEMERIS_TYPE":0,"CLASSIFICATION_TYPE":"U","NORAD_CAT_ID":26554,"ELEMENT_SET_NO":999,"REV_AT_EPOCH":4076,"BSTAR":0,"MEAN_MOTION_DOT":1.3e-7,"MEAN_MOTION_DDOT":0},{"OBJECT_NAME":"AMC-6","OBJECT_ID":"2000-067A","EPOCH":"2026-04-25T16:23:30.608160","MEAN_MOTION":1.0027371,"ECCENTRICITY":0.00038877,"INCLINATION":0.0737,"RA_OF_ASC_NODE":68.5061,"ARG_OF_PERICENTER":342.5633,"MEAN_ANOMALY":273.4884,"EPHEMERIS_TYPE":0,"CLASSIFICATION_TYPE":"U","NORAD_CAT_ID":26580,"ELEMENT_SET_NO":999,"REV_AT_EPOCH":9336,"BSTAR":0,"MEAN_MOTION_DOT":7.4e-7,"MEAN_MOTION_DDOT":0},{"OBJECT_NAME":"AMC-11","OBJECT_ID":"2004-017A","EPOCH":"2026-04-22T13:35:15.228672","MEAN_MOTION":0.99197073,"ECCENTRICITY":0.00050451,"INCLINATION":0.1665,"RA_OF_ASC_NODE":82.5408,"ARG_OF_PERICENTER":326.8232,"MEAN_ANOMALY":237.064,"EPHEMERIS_TYPE":0,"CLASSIFICATION_TYPE":"U","NORAD_CAT_ID":28252,"ELEMENT_SET_NO":999,"REV_AT_EPOCH":8030,"BSTAR":0,"MEAN_MOTION_DOT":7.7e-7,"MEAN_MOTION_DDOT":0},{"OBJECT_NAME":"AMC-15","OBJECT_ID":"2004-041A","EPOCH":"2026-04-25T15:00:38.645856","MEAN_MOTION":1.00277034,"ECCENTRICITY":0.00025804,"INCLINATION":0.0492,"RA_OF_ASC_NODE":54.728,"ARG_OF_PERICENTER":337.2203,"MEAN_ANOMALY":301.7915,"EPHEMERIS_TYPE":0,"CLASSIFICATION_TYPE":"U","NORAD_CAT_ID":28446,"ELEMENT_SET_NO":999,"REV_AT_EPOCH":7877,"BSTAR":0,"MEAN_MOTION_DOT":-1.03e-6,"MEAN_MOTION_DDOT":0},{"OBJECT_NAME":"NSS-10","OBJECT_ID":"2005-003A","EPOCH":"2026-04-24T18:36:27.711072","MEAN_MOTION":1.00271973,"ECCENTRICITY":0.0003015,"INCLINATION":6.3158,"RA_OF_ASC_NODE":71.0753,"ARG_OF_PERICENTER":288.4515,"MEAN_ANOMALY":94.9373,"EPHEMERIS_TYPE":0,"CLASSIFICATION_TYPE":"U","NORAD_CAT_ID":28526,"ELEMENT_SET_NO":999,"REV_AT_EPOCH":5262,"BSTAR":0,"MEAN_MOTION_DOT":-2.62e-6,"MEAN_MOTION_DDOT":0},{"OBJECT_NAME":"ASTRA 1KR","OBJECT_ID":"2006-012A","EPOCH":"2026-04-25T22:43:38.807616","MEAN_MOTION":1.00273242,"ECCENTRICITY":0.00034392,"INCLINATION":0.3402,"RA_OF_ASC_NODE":82.5428,"ARG_OF_PERICENTER":309.8427,"MEAN_ANOMALY":181.4719,"EPHEMERIS_TYPE":0,"CLASSIFICATION_TYPE":"U","NORAD_CAT_ID":29055,"ELEMENT_SET_NO":999,"REV_AT_EPOCH":4517,"BSTAR":0,"MEAN_MOTION_DOT":1.06e-6,"MEAN_MOTION_DDOT":0},{"OBJECT_NAME":"ASTRA 1L","OBJECT_ID":"2007-016A","EPOCH":"2026-04-25T22:03:00.247104","MEAN_MOTION":1.00271542,"ECCENTRICITY":0.00046638,"INCLINATION":1.1884,"RA_OF_ASC_NODE":81.9103,"ARG_OF_PERICENTER":328.0663,"MEAN_ANOMALY":110.1922,"EPHEMERIS_TYPE":0,"CLASSIFICATION_TYPE":"U","NORAD_CAT_ID":31306,"ELEMENT_SET_NO":999,"REV_AT_EPOCH":4446,"BSTAR":0,"MEAN_MOTION_DOT":-1.97e-6,"MEAN_MOTION_DDOT":0},{"OBJECT_NAME":"ASTRA 4A","OBJECT_ID":"2007-057A","EPOCH":"2026-04-25T22:11:21.945120","MEAN_MOTION":1.00274753,"ECCENTRICITY":0.00027267,"INCLINATION":0.0183,"RA_OF_ASC_NODE":337.9213,"ARG_OF_PERICENTER":68.7552,"MEAN_ANOMALY":144.9113,"EPHEMERIS_TYPE":0,"CLASSIFICATION_TYPE":"U","NORAD_CAT_ID":32299,"ELEMENT_SET_NO":999,"REV_AT_EPOCH":5112,"BSTAR":0,"MEAN_MOTION_DOT":2.0e-7,"MEAN_MOTION_DDOT":0},{"OBJECT_NAME":"ASTRA 1M","OBJECT_ID":"2008-057A","EPOCH":"2026-04-25T22:43:38.807616","MEAN_MOTION":1.00274035,"ECCENTRICITY":0.00037669,"INCLINATION":0.1629,"RA_OF_ASC_NODE":79.3319,"ARG_OF_PERICENTER":1.678,"MEAN_ANOMALY":133.2585,"EPHEMERIS_TYPE":0,"CLASSIFICATION_TYPE":"U","NORAD_CAT_ID":33436,"ELEMENT_SET_NO":999,"REV_AT_EPOCH":4521,"BSTAR":0,"MEAN_MOTION_DOT":1.08e-6,"MEAN_MOTION_DDOT":0},{"OBJECT_NAME":"NSS-9","OBJECT_ID":"2009-008A","EPOCH":"2026-04-25T19:36:51.763392","MEAN_MOTION":1.00271385,"ECCENTRICITY":0.00021603,"INCLINATION":1.1281,"RA_OF_ASC_NODE":83.0801,"ARG_OF_PERICENTER":293.4689,"MEAN_ANOMALY":314.5546,"EPHEMERIS_TYPE":0,"CLASSIFICATION_TYPE":"U","NORAD_CAT_ID":33749,"ELEMENT_SET_NO":999,"REV_AT_EPOCH":6299,"BSTAR":0,"MEAN_MOTION_DOT":5.9e-7,"MEAN_MOTION_DDOT":0},{"OBJECT_NAME":"SES-7 (PROTOSTAR 2)","OBJECT_ID":"2009-027A","EPOCH":"2026-04-25T19:15:31.309344","MEAN_MOTION":1.00270853,"ECCENTRICITY":0.000178,"INCLINATION":0.0951,"RA_OF_ASC_NODE":79.148,"ARG_OF_PERICENTER":244.8253,"MEAN_ANOMALY":286.9758,"EPHEMERIS_TYPE":0,"CLASSIFICATION_TYPE":"U","NORAD_CAT_ID":34941,"ELEMENT_SET_NO":999,"REV_AT_EPOCH":6210,"BSTAR":0,"MEAN_MOTION_DOT":-3.58e-6,"MEAN_MOTION_DDOT":0},{"OBJECT_NAME":"NSS-12","OBJECT_ID":"2009-058A","EPOCH":"2026-04-25T23:25:46.454304","MEAN_MOTION":1.00271946,"ECCENTRICITY":0.00050455,"INCLINATION":0.0613,"RA_OF_ASC_NODE":61.9212,"ARG_OF_PERICENTER":309.9464,"MEAN_ANOMALY":250.5525,"EPHEMERIS_TYPE":0,"CLASSIFICATION_TYPE":"U","NORAD_CAT_ID":36032,"ELEMENT_SET_NO":999,"REV_AT_EPOCH":6039,"BSTAR":0,"MEAN_MOTION_DOT":5.8e-7,"MEAN_MOTION_DDOT":0},{"OBJECT_NAME":"SES-1","OBJECT_ID":"2010-016A","EPOCH":"2026-04-25T10:02:49.074720","MEAN_MOTION":1.00270798,"ECCENTRICITY":0.00026032,"INCLINATION":0.0263,"RA_OF_ASC_NODE":287.7755,"ARG_OF_PERICENTER":107.3666,"MEAN_ANOMALY":227.9903,"EPHEMERIS_TYPE":0,"CLASSIFICATION_TYPE":"U","NORAD_CAT_ID":36516,"ELEMENT_SET_NO":999,"REV_AT_EPOCH":5850,"BSTAR":0,"MEAN_MOTION_DOT":-1.28e-6,"MEAN_MOTION_DDOT":0},{"OBJECT_NAME":"ASTRA 3B","OBJECT_ID":"2010-021A","EPOCH":"2026-04-25T23:08:03.831072","MEAN_MOTION":1.00268791,"ECCENTRICITY":0.00038985,"INCLINATION":1.335,"RA_OF_ASC_NODE":84.1496,"ARG_OF_PERICENTER":319.4213,"MEAN_ANOMALY":180.9447,"EPHEMERIS_TYPE":0,"CLASSIFICATION_TYPE":"U","NORAD_CAT_ID":36581,"ELEMENT_SET_NO":999,"REV_AT_EPOCH":5834,"BSTAR":0,"MEAN_MOTION_DOT":1.25e-6,"MEAN_MOTION_DDOT":0},{"OBJECT_NAME":"SES-3","OBJECT_ID":"2011-035A","EPOCH":"2026-04-25T21:40:39.890208","MEAN_MOTION":1.00271575,"ECCENTRICITY":0.00030619,"INCLINATION":1.1931,"RA_OF_ASC_NODE":83.5906,"ARG_OF_PERICENTER":311.7839,"MEAN_ANOMALY":40.7085,"EPHEMERIS_TYPE":0,"CLASSIFICATION_TYPE":"U","NORAD_CAT_ID":37748,"ELEMENT_SET_NO":999,"REV_AT_EPOCH":5406,"BSTAR":0,"MEAN_MOTION_DOT":-1.14e-6,"MEAN_MOTION_DDOT":0},{"OBJECT_NAME":"ASTRA 1N","OBJECT_ID":"2011-041A","EPOCH":"2026-04-25T22:43:38.807616","MEAN_MOTION":1.00270293,"ECCENTRICITY":0.00054622,"INCLINATION":0.0971,"RA_OF_ASC_NODE":49.3156,"ARG_OF_PERICENTER":9.429,"MEAN_ANOMALY":155.3288,"EPHEMERIS_TYPE":0,"CLASSIFICATION_TYPE":"U","NORAD_CAT_ID":37775,"ELEMENT_SET_NO":999,"REV_AT_EPOCH":4400,"BSTAR":0,"MEAN_MOTION_DOT":1.06e-6,"MEAN_MOTION_DDOT":0}]
